[
    {
        "Altitude(m)": 622200.1397771732,
        "Argument of Periapsis(deg)": 0.0,
        "Eccentricity": 0.0,
        "Inclination(deg)": 60.0,
        "Latitude(deg)": -52.162628137864075,
        "Longitude(deg)": -37.639144235334406,
        "Mean Anomaly(deg)": -65.45449999999995,
        "RAAN(deg)": 110.00000000000001,
        "Satellite Name": "Test1 502",
        "Satellite Number": 502,
        "Semi-Major Axis(m)": 6980739.136638005,
        "Time(s)": 0
    },
    {
        "Altitude(m)": 622058.3072335307,
        "Argument of Periapsis(deg)": 0.00010418945913296404,
        "Eccentricity": 0.0,
        "Inclination(deg)": 60.0,
        "Latitude(deg)": -51.799376709878906,
        "Longitude(deg)": -36.871086176398165,
        "Mean Anomaly(deg)": -64.83439385453812,
        "RAAN(deg)": 109.99957995086025,
        "Satellite Name": "Test1 502",
        "Satellite Number": 502,
        "Semi-Major Axis(m)": 6980739.136638005,
        "Time(s)": 10
    }
]